{
  "type": "FeatureCollection",
  "name": "i5_mainline_mp143_190",
  "features": [
    {
      "type": "Feature",
      "properties": {
        "direction": "NB",
        "srmp_min": 143,
        "srmp_max": 190
      },
      "geometry": {
        "type": "LineString",
        "coordinates": [
          [
            -122.30173898873777,
            47.30342218052849
          ],
          [
            -122.2962657943063,
            47.31749506336241
          ],
          [
            -122.29353224168361,
            47.3317490277535
          ],
          [
            -122.29287107470202,
            47.34614353329214
          ],
          [
            -122.2956931943235,
            47.36025838851242
          ],
          [
            -122.29197306814557,
            47.374615761507485
          ],
          [
            -122.29030027938914,
            47.38891570563878
          ],
          [
            -122.29226808647422,
            47.40323505213559
          ],
          [
            -122.28899286930553,
            47.41765522968032
          ],
          [
            -122.2751692604111,
            47.42841436857807
          ],
          [
            -122.2681529126737,
            47.441677940633326
          ],
          [
            -122.26358072119814,
            47.455676047066525
          ],
          [
            -122.26806913110018,
            47.46974408397949
          ],
          [
            -122.27019437056092,
            47.483678510287476
          ],
          [
            -122.26928850040329,
            47.49553520632604
          ],
          [
            -122.28132712574076,
            47.50771253580047
          ],
          [
            -122.29013000708254,
            47.52084444801065
          ],
          [
            -122.29593519260466,
            47.53476822560357
          ],
          [
            -122.30856087888695,
            47.546461590399026
          ],
          [
            -122.32068320499064,
            47.55797392690116
          ],
          [
            -122.31989822278032,
            47.57247025526326
          ],
          [
            -122.32012789970919,
            47.58672148221113
          ],
          [
            -122.32293592613493,
            47.600474522335006
          ],
          [
            -122.32995439794412,
            47.613486385130706
          ],
          [
            -122.32792216042866,
            47.62776596326326
          ],
          [
            -122.32258140558903,
            47.641309653666745
          ],
          [
            -122.32234486057796,
            47.65586735342092
          ],
          [
            -122.32172301014818,
            47.669886051743674
          ],
          [
            -122.32284953785428,
            47.684294730466895
          ],
          [
            -122.32909243833626,
            47.69741879212051
          ],
          [
            -122.32866563012718,
            47.711736031263996
          ],
          [
            -122.32420507076445,
            47.72564132231799
          ],
          [
            -122.32802061750559,
            47.73979615479923
          ],
          [
            -122.3300731042693,
            47.75395183710409
          ],
          [
            -122.3225300828303,
            47.76724223597624
          ],
          [
            -122.31689378176938,
            47.78098479046723
          ],
          [
            -122.31540616696395,
            47.79537529603928
          ],
          [
            -122.30463554920188,
            47.80714711149773
          ],
          [
            -122.28766605244277,
            47.81618169488537
          ],
          [
            -122.27100302383138,
            47.82508256165841
          ],
          [
            -122.26053924262601,
            47.8370226162159
          ],
          [
            -122.25679761129985,
            47.851234491272145
          ],
          [
            -122.2463547359166,
            47.86376465136732
          ],
          [
            -122.23946625313022,
            47.87709916894552
          ],
          [
            -122.22502568582344,
            47.88819142013713
          ],
          [
            -122.21296344398372,
            47.899999127993276
          ],
          [
            -122.20857642769214,
            47.913934526866946
          ],
          [
            -122.20153078029064,
            47.927470405319546
          ]
        ]
      }
    },
    {
      "type": "Feature",
      "properties": {
        "direction": "SB",
        "srmp_min": 143,
        "srmp_max": 190
      },
      "geometry": {
        "type": "LineString",
        "coordinates": [
          [
            -122.20167336783041,
            47.9277335532947
          ],
          [
            -122.20901658773298,
            47.91392799294763
          ],
          [
            -122.21497517389365,
            47.90002440079737
          ],
          [
            -122.22583409013076,
            47.88840427284669
          ],
          [
            -122.24003006204025,
            47.87720539958788
          ],
          [
            -122.24689290271027,
            47.86385523234228
          ],
          [
            -122.25736837885195,
            47.851251433284844
          ],
          [
            -122.26108606887867,
            47.836977174188796
          ],
          [
            -122.27136923552831,
            47.82533109671221
          ],
          [
            -122.28799541803448,
            47.816471546316706
          ],
          [
            -122.30499221899615,
            47.80739713517136
          ],
          [
            -122.3159424315856,
            47.795395710452
          ],
          [
            -122.31723129427719,
            47.78102451829558
          ],
          [
            -122.32287170987149,
            47.76725793900092
          ],
          [
            -122.33042455176275,
            47.75383937555954
          ],
          [
            -122.32835394316548,
            47.739770398007764
          ],
          [
            -122.3244659032205,
            47.72573902690579
          ],
          [
            -122.3289030215319,
            47.71183169527421
          ],
          [
            -122.32978548807638,
            47.697523389106564
          ],
          [
            -122.32287984142427,
            47.683865858417974
          ],
          [
            -122.32231417419176,
            47.670316722991295
          ],
          [
            -122.32257004501541,
            47.65596230018859
          ],
          [
            -122.32330423060971,
            47.64137242668583
          ],
          [
            -122.32863822135394,
            47.627592562830955
          ],
          [
            -122.33036221557573,
            47.61336574255119
          ],
          [
            -122.32325914339005,
            47.60042152637468
          ],
          [
            -122.32042494228801,
            47.586720793864025
          ],
          [
            -122.32014753327753,
            47.572330548593015
          ],
          [
            -122.32129119315003,
            47.5579863366618
          ],
          [
            -122.30886946410367,
            47.54626920058651
          ],
          [
            -122.29656310488942,
            47.53446881895194
          ],
          [
            -122.29047904850492,
            47.52078660101958
          ],
          [
            -122.28167858656761,
            47.5076880302732
          ],
          [
            -122.26966243390777,
            47.495520589597575
          ],
          [
            -122.27061360187616,
            47.4838631954608
          ],
          [
            -122.26851039198867,
            47.46984254830547
          ],
          [
            -122.26443661428064,
            47.454771349289125
          ],
          [
            -122.26859995322978,
            47.44183681490547
          ],
          [
            -122.27572263905104,
            47.42875952520188
          ],
          [
            -122.28935200426167,
            47.41777191166178
          ],
          [
            -122.29267520599312,
            47.40342713807879
          ],
          [
            -122.29070998269896,
            47.388947244284424
          ],
          [
            -122.29250603163632,
            47.37465371176132
          ],
          [
            -122.29616012877626,
            47.36037959281331
          ],
          [
            -122.29329759414662,
            47.346080873387706
          ],
          [
            -122.29394317054734,
            47.33192193996078
          ],
          [
            -122.29679240852816,
            47.31747809097607
          ],
          [
            -122.302204407813,
            47.30352410939415
          ]
        ]
      }
    }
  ]
}